IRIDIUM 116             
1 43072U 17083C   25287.62980375  .00000250  00000+0  82254-4 0  9990
2 43072  86.3943  64.6395 0001784  89.1712 270.9688 14.34219130408978
IRIDIUM 130             
1 43073U 17083D   25287.45855484  .00000121  00000+0  36168-4 0  9994
2 43073  86.3952  64.9630 0002005  82.0832 278.0592 14.34217632408895
IRIDIUM 151             
1 43074U 17083E   25287.36341344  .00000539  00000+0  18523-3 0  9997
2 43074  86.3944  64.8033 0001863  89.8801 270.2608 14.34218616408902
IRIDIUM 134             
1 43075U 17083F   25287.68054551  .00000099  00000+0  28249-4 0  9992
2 43075  86.3947  64.6754 0002077  84.7376 275.4057 14.34218221408911
IRIDIUM 137             
1 43076U 17083G   25287.62346121  .00000105  00000+0  30483-4 0  9995
2 43076  86.3946  64.7870 0001485  96.7055 263.4310 14.34218178408976
IRIDIUM 141             
1 43077U 17083H   25287.82642337  .00000437  00000+0  14886-3 0  9992
2 43077  86.3943  64.5467 0002256  95.0464 265.0989 14.34216791409001
IRIDIUM 153             
1 43078U 17083J   25287.35999155  .00000248  00000+0  81624-4 0  9999
2 43078  86.4006  33.2195 0002524  96.7372 263.4111 14.34216183410048
IRIDIUM 131             
1 43079U 17083K   25287.81374030  .00000137  00000+0  41935-4 0  9998
2 43079  86.3950  64.7219 0002052  95.5299 264.6131 14.34218077408937
